{
    "links": {
        "self": "http://www.neowsapp.com/rest/v1/neo/3838266?api_key=iIulBulltgU6a56xZRHN4H3l9WmuAYTsLGpBGhQ2"
    },
    "id": "3838266",
    "neo_reference_id": "3838266",
    "name": "(2019 CL5)",
    "designation": "2019 CL5",
    "nasa_jpl_url": "http://ssd.jpl.nasa.gov/sbdb.cgi?sstr=3838266",
    "absolute_magnitude_h": 24.8,
    "estimated_diameter": {
        "kilometers": {
            "estimated_diameter_min": 0.0291443905,
            "estimated_diameter_max": 0.0651688382
        },
        "meters": {
            "estimated_diameter_min": 29.1443904535,
            "estimated_diameter_max": 65.1688382168
        },
        "miles": {
            "estimated_diameter_min": 0.018109479,
            "estimated_diameter_max": 0.0404940262
        },
        "feet": {
            "estimated_diameter_min": 95.6180819754,
            "estimated_diameter_max": 213.8085311752
        }
    },
    "is_potentially_hazardous_asteroid": false,
    "close_approach_data": [
        {
            "close_approach_date": "2019-02-03",
            "close_approach_date_full": "2019-Feb-03 05:18",
            "epoch_date_close_approach": 1549171080000,
            "relative_velocity": {
                "kilometers_per_second": "9.9621691608",
                "kilometers_per_hour": "35863.8089790071",
                "miles_per_hour": "22284.3761958725"
            },
            "miss_distance": {
                "astronomical": "0.049082941",
                "lunar": "19.093264049",
                "kilometers": "7342703.42693567",
                "miles": "4562544.341505446"
            },
            "orbiting_body": "Earth"
        }
    ],
    "orbital_data": {
        "orbit_id": "5",
        "orbit_determination_date": "2019-02-28 06:56:29",
        "first_observation_date": "2019-02-11",
        "last_observation_date": "2019-02-28",
        "data_arc_in_days": 17,
        "observations_used": 29,
        "orbit_uncertainty": "8",
        "minimum_orbit_intersection": ".0429932",
        "jupiter_tisserand_invariant": "3.192",
        "epoch_osculation": "2458531.5",
        "eccentricity": ".5878174382077209",
        "semi_major_axis": "2.475559857623908",
        "inclination": "12.45587186957891",
        "ascending_node_longitude": "140.5475677018558",
        "orbital_period": "1422.684416817701",
        "perihelion_distance": "1.020382603985552",
        "perihelion_argument": "345.7929655691803",
        "aphelion_distance": "3.930737111262264",
        "perihelion_time": "2458510.625135202004",
        "mean_anomaly": "5.28223352870358",
        "mean_motion": ".253042766016414",
        "equinox": "J2000",
        "orbit_class": {
            "orbit_class_type": "AMO",
            "orbit_class_description": "Near-Earth asteroid orbits similar to that of 1221 Amor",
            "orbit_class_range": "1.017 AU < q (perihelion) < 1.3 AU"
        }
    },
    "is_sentry_object": false
}